NORAD_CAT_ID,OBJECT_NAME,OBJECT_TYPE,EPOCH,MEAN_MOTION,ECCENTRICITY,INCLINATION,RA_OF_ASC_NODE,ARG_OF_PERICENTER,MEAN_ANOMALY,BSTAR,MEAN_MOTION_DOT,MEAN_MOTION_DDOT,TLE_LINE0,TLE_LINE1,TLE_LINE2,SEMIMAJOR_AXIS,PERIOD,APOGEE,PERIGEE,DECAYED
51114.0,STARLINK-3375,PAYLOAD,2023-12-15 06:59:13,15.08829273,0.0001253,53.2184,349.5943,97.8996,262.2138,-0.0001531,-2.723e-05,0.0,0 STARLINK-3375,1 51114U 22005L   23349.29112392 -.00002723  00000-0 -15310-3 0  9990,2 51114  53.2184 349.5943 0001253  97.8996 262.2138 15.08829273106896,6917.913,95.438,540.645,538.911,0.0
51114.0,STARLINK-3375,PAYLOAD,2023-12-16 06:50:00,15.08834014,0.0001321,53.2183,345.1298,110.0927,250.0208,-0.0001568,-2.782e-05,0.0,0 STARLINK-3375,1 51114U 22005L   23350.28472713 -.00002782  00000-0 -15680-3 0  9992,2 51114  53.2183 345.1298 0001321 110.0927 250.0208 15.08834014107048,6917.899,95.438,540.678,538.85,0.0
51114.0,STARLINK-3375,PAYLOAD,2023-12-17 06:40:49,15.08790687,0.0001565,53.2181,340.6712,134.2892,225.8229,-0.00011564,-2.125e-05,0.0,0 STARLINK-3375,1 51114U 22005L   23351.27835612 -.00002125  00000-0 -11564-3 0  9991,2 51114  53.2181 340.6712 0001565 134.2892 225.8229 15.08790687107192,6918.031,95.441,540.979,538.813,0.0
51114.0,STARLINK-3375,PAYLOAD,2023-12-18 03:20:48,15.0884019,0.0001268,53.2181,336.8048,88.0105,272.1033,0.00021552,3.144e-05,0.0,0 STARLINK-3375,1 51114U 22005L   23352.13944506  .00003144  00000-0  21552-3 0  9998,2 51114  53.2181 336.8048 0001268  88.0105 272.1033 15.08840190107322,6917.88,95.438,540.622,538.868,0.0
51114.0,STARLINK-3375,PAYLOAD,2023-12-18 06:31:33,15.08851414,0.0001203,53.2177,336.209,92.7654,267.3476,0.0002461,3.632e-05,0.0,0 STARLINK-3375,1 51114U 22005L   23352.27191798  .00003632  00000-0  24610-3 0  9990,2 51114  53.2177 336.2090 0001203  92.7654 267.3476 15.08851414107348,6917.846,95.437,540.543,538.878,0.0
51114.0,STARLINK-3375,PAYLOAD,2023-12-19 03:11:35,15.08842257,0.000131,53.217,332.3449,93.3052,266.809,1.9779e-05,2.7e-07,0.0,0 STARLINK-3375,1 51114U 22005L   23353.13305101  .00000027  00000-0  19779-4 0  9997,2 51114  53.2170 332.3449 0001310  93.3052 266.8090 15.08842257107479,6917.873,95.437,540.645,538.832,0.0
51114.0,STARLINK-3375,PAYLOAD,2023-12-19 06:22:21,15.08845472,0.0001704,53.2181,331.7502,110.2741,249.8435,5.8145e-05,6.38e-06,0.0,0 STARLINK-3375,1 51114U 22005L   23353.26552835  .00000638  00000-0  58145-4 0  9997,2 51114  53.2181 331.7502 0001704 110.2741 249.8435 15.08845472106380,6917.864,95.437,540.907,538.55,0.0
51114.0,STARLINK-3375,PAYLOAD,2023-12-20 03:02:23,15.08839069,0.0001689,53.219,327.8785,79.7668,280.3515,-0.00010903,-2.023e-05,0.0,0 STARLINK-3375,1 51114U 22005L   23354.12665762 -.00002023  00000-0 -10903-3 0  9998,2 51114  53.2190 327.8785 0001689  79.7668 280.3515 15.08839069107620,6917.883,95.438,540.917,538.58,0.0
51114.0,STARLINK-3375,PAYLOAD,2023-12-20 06:13:09,15.08842098,0.0001744,53.2189,327.2845,76.6843,283.4344,-7.5009e-05,-1.482e-05,0.0,0 STARLINK-3375,1 51114U 22005L   23354.25913553 -.00001482  00000-0 -75009-4 0  9993,2 51114  53.2189 327.2845 0001744  76.6843 283.4344 15.08842098106531,6917.874,95.437,540.945,538.532,0.0
51114.0,STARLINK-3375,PAYLOAD,2023-12-21 02:53:09,15.08840855,0.0001773,53.2194,323.4184,97.0009,263.1185,0.00023191,3.405e-05,0.0,0 STARLINK-3375,1 51114U 22005L   23355.12024894  .00003405  00000-0  23191-3 0  9990,2 51114  53.2194 323.4184 0001773  97.0009 263.1185 15.08840855107778,6917.878,95.438,540.969,538.516,0.0
51114.0,STARLINK-3375,PAYLOAD,2023-12-21 04:28:32,15.08851389,0.0001894,53.2179,323.1214,78.2538,281.8667,0.00027151,4.037e-05,0.0,0 STARLINK-3375,1 51114U 22005L   23355.18649022  .00004037  00000-0  27151-3 0  9994,2 51114  53.2179 323.1214 0001894  78.2538 281.8667 15.08851389106678,6917.846,95.437,541.021,538.4,0.0
51114.0,STARLINK-3375,PAYLOAD,2023-12-22 04:19:20,15.08843574,0.0001623,53.2178,318.6634,106.6648,253.4522,0.00010341,1.358e-05,0.0,0 STARLINK-3375,1 51114U 22005L   23356.18009387  .00001358  00000-0  10341-3 0  9995,2 51114  53.2178 318.6634 0001623 106.6648 253.4522 15.08843574107932,6917.869,95.437,540.857,538.612,0.0
51114.0,STARLINK-3375,PAYLOAD,2023-12-23 07:20:53,15.08844228,0.0001763,53.2177,313.6037,84.564,275.5554,8.6323e-06,-1.51e-06,0.0,0 STARLINK-3375,1 51114U 22005L   23357.30617444 -.00000151  00000-0  86323-5 0  9995,2 51114  53.2177 313.6037 0001763  84.5640 275.5554 15.08844228108101,6917.867,95.437,540.952,538.513,0.0
51114.0,STARLINK-3375,PAYLOAD,2023-12-24 02:25:31,15.08843532,0.00015,53.2168,310.0353,97.3677,262.7485,9.7786e-05,1.269e-05,0.0,0 STARLINK-3375,1 51114U 22005L   23358.10105667  .00001269  00000-0  97786-4 0  9997,2 51114  53.2168 310.0353 0001500  97.3677 262.7485 15.08843532107112,6917.87,95.437,540.772,538.697,0.0
51114.0,STARLINK-3375,PAYLOAD,2023-12-25 02:16:18,15.0884055,0.0001672,53.2178,305.5812,111.9756,248.1414,3.129e-05,2.1e-06,0.0,0 STARLINK-3375,1 51114U 22005L   23359.09465795  .00000210  00000-0  31290-4 0  9990,2 51114  53.2178 305.5812 0001672 111.9756 248.1414 15.08840550108379,6917.879,95.438,540.9,538.587,0.0
51114.0,STARLINK-3375,PAYLOAD,2023-12-25 05:27:04,15.08844587,0.000144,53.2172,304.9815,93.9638,266.1518,9.5477e-05,1.232e-05,0.0,0 STARLINK-3375,1 51114U 22005L   23359.22713584  .00001232  00000-0  95477-4 0  9999,2 51114  53.2172 304.9815 0001440  93.9638 266.1518 15.08844587107288,6917.866,95.437,540.728,538.735,0.0
51114.0,STARLINK-3375,PAYLOAD,2023-12-26 03:42:28,15.08843048,0.0001576,53.2177,300.8229,87.6217,272.4956,-2.3411e-05,-6.61e-06,0.0,0 STARLINK-3375,1 51114U 22005L   23360.15449833 -.00000661  00000-0 -23411-4 0  9992,2 51114  53.2177 300.8229 0001576  87.6217 272.4956 15.08843048108536,6917.871,95.437,540.826,538.646,0.0
51114.0,STARLINK-3375,PAYLOAD,2023-12-26 05:17:51,15.08848785,0.0001668,53.2182,300.5203,104.6576,255.4601,5.7552e-05,6.28e-06,0.0,0 STARLINK-3375,1 51114U 22005L   23360.22073403  .00000628  00000-0  57552-4 0  9990,2 51114  53.2182 300.5203 0001668 104.6576 255.4601 15.08848785107430,6917.854,95.437,540.872,538.565,0.0
51114.0,STARLINK-3375,PAYLOAD,2023-12-27 03:33:15,15.08844742,0.0001459,53.2181,296.3604,86.3985,273.7174,9.4145e-05,1.211e-05,0.0,0 STARLINK-3375,1 51114U 22005L   23361.14810021  .00001211  00000-0  94145-4 0  9995,2 51114  53.2181 296.3604 0001459  86.3985 273.7174 15.08844742108689,6917.866,95.437,540.74,538.722,0.0
51114.0,STARLINK-3375,PAYLOAD,2023-12-27 05:08:38,15.0884881,0.0001414,53.2182,296.0613,91.8928,268.2226,0.00011719,1.578e-05,0.0,0 STARLINK-3375,1 51114U 22005L   23361.21433700  .00001578  00000-0  11719-3 0  9999,2 51114  53.2182 296.0613 0001414  91.8928 268.2226 15.08848810107581,6917.853,95.437,540.697,538.74,0.0
51114.0,STARLINK-3375,PAYLOAD,2023-12-28 01:48:40,15.08842538,0.0001541,53.2182,292.1913,92.2876,267.8293,1.77e-05,-6e-08,0.0,0 STARLINK-3375,1 51114U 22005L   23362.07546532 -.00000006  00000-0  17700-4 0  9995,2 51114  53.2182 292.1913 0001541  92.2876 267.8293 15.08842538108827,6917.873,95.437,540.804,538.672,0.0
51114.0,STARLINK-3375,PAYLOAD,2023-12-29 06:25:36,15.08854676,0.0001564,53.2168,286.8452,98.2888,261.8281,0.00025996,3.853e-05,0.0,0 STARLINK-3375,1 51114U 22005L   23363.26777778  .00003853  00000-0  25996-3 0  9992,2 51114  53.2168 286.8452 0001564  98.2888 261.8281 15.08854676109001,6917.836,95.437,540.782,538.619,0.0
51114.0,STARLINK-3375,PAYLOAD,2023-12-29 22:19:28,15.0883849,0.0001667,53.2169,283.8715,106.1827,253.9349,5.4177e-05,5.74e-06,0.0,0 STARLINK-3375,1 51114U 22005L   23363.93018616  .00000574  00000-0  54177-4 0  9996,2 51114  53.2169 283.8715 0001667 106.1827 253.9349 15.08838490107996,6917.885,95.438,540.903,538.597,0.0
51114.0,STARLINK-3375,PAYLOAD,2023-12-30 01:30:14,15.08843522,0.000175,53.2176,283.2739,98.3936,261.7255,0.00010981,1.46e-05,0.0,0 STARLINK-3375,1 51114U 22005L   23364.06266422  .00001460  00000-0  10981-3 0  9990,2 51114  53.2176 283.2739 0001750  98.3936 261.7255 15.08843522109122,6917.87,95.437,540.945,538.524,0.0
51114.0,STARLINK-3375,PAYLOAD,2023-12-30 04:41:00,15.08843035,0.0001765,53.2176,282.6787,97.9869,262.1324,0.00010372,1.363e-05,0.0,0 STARLINK-3375,1 51114U 22005L   23364.19514441  .00001363  00000-0  10372-3 0  9997,2 51114  53.2176 282.6787 0001765  97.9869 262.1324 15.08843035108034,6917.871,95.437,540.957,538.515,0.0
51114.0,STARLINK-3375,PAYLOAD,2023-12-30 22:10:14,15.08845654,0.0001751,53.2174,279.4075,117.1503,242.9668,-3.534e-06,-3.44e-06,0.0,0 STARLINK-3375,1 51114U 22005L   23364.92378065 -.00000344  00000-0 -35340-5 0  9992,2 51114  53.2174 279.4075 0001751 117.1503 242.9668 15.08845654108149,6917.863,95.437,540.939,538.517,0.0
51114.0,STARLINK-3375,PAYLOAD,2023-12-31 18:50:15,15.08835657,0.000166,53.2166,275.543,100.9286,259.1893,5.9195e-05,6.54e-06,0.0,0 STARLINK-3375,1 51114U 22005L   23365.78490706  .00000654  00000-0  59195-4 0  9999,2 51114  53.2166 275.5430 0001660 100.9286 259.1893 15.08835657109388,6917.894,95.438,540.907,538.61,0.0
51114.0,STARLINK-3375,PAYLOAD,2023-12-31 22:01:02,15.08839562,0.0001729,53.2166,274.9488,110.435,249.6828,-2.4001e-05,-6.7e-06,0.0,0 STARLINK-3375,1 51114U 22005L   23365.91738448 -.00000670  00000-0 -24001-4 0  9990,2 51114  53.2166 274.9488 0001729 110.4350 249.6828 15.08839562108298,6917.882,95.438,540.943,538.551,0.0
51114.0,STARLINK-3375,PAYLOAD,2024-01-01 01:11:48,15.0883954,0.000162,53.2175,274.3563,105.9979,254.1191,3.5546e-05,2.78e-06,0.0,0 STARLINK-3375,1 51114U 22005L   24001.04986744  .00000278  00000-0  35546-4 0  9994,2 51114  53.2175 274.3563 0001620 105.9979 254.1191 15.08839540108315,6917.882,95.438,540.867,538.626,0.0
51114.0,STARLINK-3375,PAYLOAD,2024-01-01 21:51:49,15.08845722,0.0001552,53.2175,270.4918,111.062,249.0538,-1.5676e-06,-3.13e-06,0.0,0 STARLINK-3375,1 51114U 22005L   24001.91098596 -.00000313  00000-0 -15676-5 0  9994,2 51114  53.2175 270.4918 0001552 111.0620 249.0538 15.08845722108442,6917.863,95.437,540.802,538.654,0.0
